{
    "links": {
        "self": "http://www.neowsapp.com/rest/v1/neo/3666424?api_key=iIulBulltgU6a56xZRHN4H3l9WmuAYTsLGpBGhQ2"
    },
    "id": "3666424",
    "neo_reference_id": "3666424",
    "name": "(2014 FV)",
    "designation": "2014 FV",
    "nasa_jpl_url": "http://ssd.jpl.nasa.gov/sbdb.cgi?sstr=3666424",
    "absolute_magnitude_h": 20.2,
    "estimated_diameter": {
        "kilometers": {
            "estimated_diameter_min": 0.2424124811,
            "estimated_diameter_max": 0.5420507863
        },
        "meters": {
            "estimated_diameter_min": 242.4124811008,
            "estimated_diameter_max": 542.0507863358
        },
        "miles": {
            "estimated_diameter_min": 0.1506280858,
            "estimated_diameter_max": 0.3368146392
        },
        "feet": {
            "estimated_diameter_min": 795.3165644948,
            "estimated_diameter_max": 1778.3819018419
        }
    },
    "is_potentially_hazardous_asteroid": false,
    "close_approach_data": [
        {
            "close_approach_date": "2014-03-05",
            "close_approach_date_full": "2014-Mar-05 22:45",
            "epoch_date_close_approach": 1394059500000,
            "relative_velocity": {
                "kilometers_per_second": "14.6278281875",
                "kilometers_per_hour": "52660.1814751501",
                "miles_per_hour": "32720.988872712"
            },
            "miss_distance": {
                "astronomical": "0.3449888297",
                "lunar": "134.2006547533",
                "kilometers": "51609594.096912739",
                "miles": "32068714.7257602382"
            },
            "orbiting_body": "Earth"
        }
    ],
    "orbital_data": {
        "orbit_id": "9",
        "orbit_determination_date": "2017-04-07 10:29:18",
        "first_observation_date": "2014-03-20",
        "last_observation_date": "2014-03-30",
        "data_arc_in_days": 10,
        "observations_used": 29,
        "orbit_uncertainty": "7",
        "minimum_orbit_intersection": ".324711",
        "jupiter_tisserand_invariant": "3.054",
        "epoch_osculation": "2459000.5",
        "eccentricity": ".5122749888948813",
        "semi_major_axis": "2.665263393548181",
        "inclination": "26.29850558948623",
        "ascending_node_longitude": "170.7226165811709",
        "orbital_period": "1589.310045944495",
        "perihelion_distance": "1.299915618216353",
        "perihelion_argument": "340.2362997872078",
        "aphelion_distance": "4.030611168880008",
        "perihelion_time": "2458304.388430401371",
        "mean_anomaly": "157.6785887026717",
        "mean_motion": ".2265133860561859",
        "equinox": "J2000",
        "orbit_class": {
            "orbit_class_type": "AMO",
            "orbit_class_description": "Near-Earth asteroid orbits similar to that of 1221 Amor",
            "orbit_class_range": "1.017 AU < q (perihelion) < 1.3 AU"
        }
    },
    "is_sentry_object": false
}